GSAT0101 (GALILEO-PFM)  
1 37846U 11060A   26103.91073622 -.00000065  00000+0  00000+0 0  9998
2 37846  57.0140 343.5060 0004037  25.7966 334.2767  1.70475681 90029
GSAT0102 (GALILEO-FM2)  
1 37847U 11060B   26103.54293104 -.00000065  00000+0  00000+0 0  9997
2 37847  57.0151 343.5164 0004848   2.3635 177.5435  1.70475976 90028
GSAT0103 (GALILEO-FM3)  
1 38857U 12055A   26101.01819338  .00000061  00000+0  00000+0 0  9992
2 38857  55.7645 103.3870 0005942 292.9619  67.0040  1.70473499 83861
GSAT0201 (GALILEO 5)    
1 40128U 14050A   26103.19964823 -.00000014  00000+0  00000+0 0  9993
2 40128  48.9476 276.0959 1664205 176.8542 184.3391  1.85520051 77112
GSAT0202 (GALILEO 6)    
1 40129U 14050B   26103.99439736 -.00000017  00000+0  00000+0 0  9995
2 40129  48.9633 275.1482 1665361 177.6171 183.2855  1.85520686 79298
GSAT0203 (GALILEO 7)    
1 40544U 15017A   26102.51559488 -.00000068  00000+0  00000+0 0  9990
2 40544  56.8067 343.3875 0002221 328.6181  31.4187  1.70475837 68088
GSAT0204 (GALILEO 8)    
1 40545U 15017B   26103.94436794 -.00000065  00000+0  00000+0 0  9990
2 40545  56.8130 343.3668 0002671 294.4790  65.5462  1.70475579 31150
GSAT0205 (GALILEO 9)    
1 40889U 15045A   26104.28351466 -.00000004  00000+0  00000+0 0  9995
2 40889  54.9666 223.4770 0004654 268.3744  91.5417  1.67410752 65893
GSAT0206 (GALILEO 10)   
1 40890U 15045B   26103.34641988 -.00000003  00000+0  00000+0 0  9993
2 40890  54.9661 223.3936 0002516  44.1226 315.8689  1.70473909 65938
GSAT0209 (GALILEO 12)   
1 41174U 15079A   26102.92789086  .00000071  00000+0  00000+0 0  9995
2 41174  55.7866 103.0501 0005579 326.6250  33.3716  1.70474239 63667
GSAT0208 (GALILEO 11)   
1 41175U 15079B   26103.73472854  .00000074  00000+0  00000+0 0  9991
2 41175  55.7854 103.0250 0004952 327.5862  32.4145  1.70474115 64096
GSAT0211 (GALILEO 14)   
1 41549U 16030A   26102.68558672 -.00000001  00000+0  00000+0 0  9991
2 41549  55.1164 223.4952 0002692   9.1481 350.8293  1.70474091 61556
GSAT0210 (GALILEO 13)   
1 41550U 16030B   26102.94285544 -.00000002  00000+0  00000+0 0  9998
2 41550  55.1156 223.4862 0002349 219.3872 140.5679  1.70474067 61552
GSAT0207 (GALILEO 15)   
1 41859U 16069A   26103.80772586  .00000073  00000+0  00000+0 0  9992
2 41859  55.4579 102.8658 0005854 314.4268  45.5561  1.70474151 58306
GSAT0212 (GALILEO 16)   
1 41860U 16069B   26103.66122948  .00000073  00000+0  00000+0 0  9999
2 41860  55.4551 102.8649 0004506 338.0161  21.9957  1.70474348 58557
GSAT0213 (GALILEO 17)   
1 41861U 16069C   26102.26885546  .00000067  00000+0  00000+0 0  9998
2 41861  55.4553 102.9113 0005858 299.7626  60.2101  1.70474627 58396
GSAT0214 (GALILEO 18)   
1 41862U 16069D   26104.17469770  .00000074  00000+0  00000+0 0  9996
2 41862  55.4566 102.8514 0004899 304.5124  55.4714  1.70474438 58551
GSAT0215 (GALILEO 19)   
1 43055U 17079A   26104.07814696 -.00000004  00000+0  00000+0 0  9998
2 43055  55.0941 223.2697 0001086 267.1371  92.8215  1.70474691 51895
GSAT0216 (GALILEO 20)   
1 43056U 17079B   26102.02302486  .00000000  00000+0  00000+0 0  9996
2 43056  55.0936 223.3260 0002334 292.1397  67.8099  1.70474862 51870
GSAT0217 (GALILEO 21)   
1 43057U 17079C   26103.41695161 -.00000003  00000+0  00000+0 0  9990
2 43057  55.0928 223.2857 0001996 317.8206  42.1355  1.70474726 51881
GSAT0218 (GALILEO 22)   
1 43058U 17079D   26103.63700481 -.00000003  00000+0  00000+0 0  9997
2 43058  55.0927 223.2773 0002805 280.3217  79.6180  1.70474711 51913
GSAT0221 (GALILEO 25)   
1 43564U 18060A   26101.78098125 -.00000070  00000+0  00000+0 0  9993
2 43564  57.1897 343.5754 0004251 317.7509  42.2653  1.70475716 48031
GSAT0222 (GALILEO 26)   
1 43565U 18060B   26103.17365737 -.00000066  00000+0  00000+0 0  9990
2 43565  57.1941 343.5409 0003910 282.1061  77.9018  1.70475372 48104
GSAT0219 (GALILEO 23)   
1 43566U 18060C   26103.98128036 -.00000064  00000+0  00000+0 0  9997
2 43566  57.1916 343.5209 0003821 331.8722  28.1607  1.70475619 48096
GSAT0220 (GALILEO 24)   
1 43567U 18060D   26101.85589940 -.00000069  00000+0  00000+0 0  9992
2 43567  57.1928 343.5796 0003938 334.5402  25.4894  1.70475726 48047
GSAT0223 (GALILEO 27)   
1 49809U 21116A   26101.41342324 -.00000071  00000+0  00000+0 0  9991
2 49809  57.1818 343.4808 0002033 278.5202 260.7765  1.70475922 27049
GSAT0224 (GALILEO 28)   
1 49810U 21116B   26101.81241686 -.00000069  00000+0  00000+0 0  9993
2 49810  57.1875 343.4689 0001098 317.7943 218.9778  1.70475940 27071
GSAT0225 (GALILEO 29)   
1 59598U 24079A   26101.53533745  .00000062  00000+0  00000+0 0  9999
2 59598  55.0745 102.9411 0002853 273.1683  86.6676  1.70474761 12177
GSAT0227 (GALILEO 30)   
1 59600U 24079C   26103.47880739  .00000071  00000+0  00000+0 0  9996
2 59600  55.0733 102.8851 0001006   8.3967 351.6365  1.70474531 12262
GSAT0232 (GALILEO 32)   
1 61182U 24167A   26102.46172823 -.00000001  00000+0  00000+0 0  9992
2 61182  55.2064 223.1156 0004433 209.2135 102.1192  1.70474500  9753
GSAT0226 (GALILEO 31)   
1 61183U 24167B   26104.15288924 -.00000004  00000+0  00000+0 0  9994
2 61183  55.2045 223.0767 0001689 177.3836 183.2011  1.70474363  9761
GSAT0233 (GALILEO 33)   
1 67160U 25302A   26103.98034779  .00000072  00000+0  00000+0 0  9998
2 67160  54.2930 103.9589 0002474 238.1734 112.9829  1.70474690  2029
GSAT0234 (GALILEO 34)   
1 67162U 25302C   26102.53414785  .00000066  00000+0  00000+0 0  9992
2 67162  54.2937 103.9988 0003985 289.8837  73.8062  1.70474700  2066
